IRIDIUM 7               
1 24793U 97020B   26016.67907151  .00000269  00000+0  85522-4 0  9996
2 24793  86.3941  87.4434 0002450 100.6468 259.5005 14.36138383502535
IRIDIUM 5               
1 24795U 97020D   26016.95823698  .00004044  00000+0  31155-3 0  9999
2 24795  86.3892 344.9586 0106557  89.5585 271.7855 14.96837355517412
IRIDIUM 4               
1 24796U 97020E   26016.87664157  .00000303  00000+0  95618-4 0  9993
2 24796  86.3933  84.0930 0002241  98.5579 261.5873 14.37045329503152
IRIDIUM 914             
1 24836U 97030A   26016.90522442  .00000343  00000+0  10039-3 0  9990
2 24836  86.3921  92.0551 0001468 141.1874 218.9432 14.41106912637904
IRIDIUM 16              
1 24841U 97030F   26016.97862715  .00000375  00000+0  11533-3 0  9998
2 24841  86.4047 115.5102 0004262  90.3501 269.8186 14.38929376497740
IRIDIUM 911             
1 24842U 97030G   26016.96068401  .00000456  00000+0  11732-3 0  9999
2 24842  86.4469 114.0504 0016279 103.7789 256.5227 14.47948414506011
IRIDIUM 17              
1 24870U 97034B   26016.88664953  .00000384  00000+0  12025-3 0  9995
2 24870  86.3998 144.9674 0003167  68.6267 291.5269 14.38063776494290
IRIDIUM 920             
1 24871U 97034C   26016.72777325  .00000306  00000+0  87465-4 0  9992
2 24871  86.3999 123.7730 0013658  97.0604 263.2150 14.41770250497347
